NORAD_CAT_ID,OBJECT_NAME,OBJECT_TYPE,EPOCH,MEAN_MOTION,ECCENTRICITY,INCLINATION,RA_OF_ASC_NODE,ARG_OF_PERICENTER,MEAN_ANOMALY,BSTAR,MEAN_MOTION_DOT,MEAN_MOTION_DDOT,TLE_LINE0,TLE_LINE1,TLE_LINE2,SEMIMAJOR_AXIS,PERIOD,APOGEE,PERIGEE,DECAYED
51807.0,STARLINK-3606,PAYLOAD,2022-08-10 22:00:00,15.08843579,0.0001899,53.2179,85.4669,59.6638,275.1487,-0.00019447,-3.382e-05,0.0,0 STARLINK-3606,1 51807U 22017AR  22222.91667824 -.00003382  00000-0 -19447-3 0  9992,2 51807  53.2179  85.4669 0001899  59.6638 275.1487 15.08843579  1300,6917.869000000002,95.437,541.048,538.4209999999998,0.0
51807.0,STARLINK-3606,PAYLOAD,2022-08-11 04:00:00,15.08862736,0.0001831,53.2174,84.3445,58.0103,195.4953,-0.0024223,-0.00038657,0.0,0 STARLINK-3606,1 51807U 22017AR  22223.16667824 -.00038657  00000-0 -24223-2 0  9990,2 51807  53.2174  84.3445 0001831  58.0103 195.4953 15.08862736 26867,6917.811,95.436,540.943,538.409,0.0
51807.0,STARLINK-3606,PAYLOAD,2022-08-11 14:00:01,15.08813794,0.0001675,53.2175,82.4725,66.0164,291.9938,0.0021937,0.00034772,0.0,0 STARLINK-3606,1 51807U 22017AR  22223.58334491  .00034772  00000-0  21937-2 0  9998,2 51807  53.2175  82.4725 0001675  66.0164 291.9938 15.08813794  1307,6917.96,95.439,540.984,538.6669999999998,0.0
51807.0,STARLINK-3606,PAYLOAD,2022-08-11 20:00:01,15.08836814,0.0001759,53.2172,81.3516,61.0834,215.6088,-0.0010085,-0.00016301,0.0,0 STARLINK-3606,1 51807U 22017AR  22223.83334491 -.00016301  00000-0 -10085-2 0  9998,2 51807  53.2172  81.3516 0001759  61.0834 215.6088 15.08836814 26968,6917.89,95.438,540.972,538.538,0.0
51807.0,STARLINK-3606,PAYLOAD,2022-08-12 12:00:00,15.08827285,0.0001652,53.2166,78.3572,65.9931,233.8882,0.0026706,0.00042456,0.0,0 STARLINK-3606,1 51807U 22017AR  22224.50001157  .00042456  00000-0  26706-2 0  9998,2 51807  53.2166  78.3572 0001652  65.9931 233.8882 15.08827285 27060,6917.919,95.438,540.927,538.641,0.0
51807.0,STARLINK-3606,PAYLOAD,2022-08-12 14:00:01,15.08849991,0.000166,53.2168,77.9832,66.513,326.2602,0.00026747,3.972e-05,0.0,0 STARLINK-3606,1 51807U 22017AR  22224.58334491  .00003972  00000-0  26747-3 0  9992,2 51807  53.2168  77.9832 0001660  66.5130 326.2602 15.08849991  1307,6917.85,95.437,540.863,538.566,0.0
51807.0,STARLINK-3606,PAYLOAD,2022-08-12 22:00:01,15.08823862,0.0001751999999999,53.2167,76.4885,59.3601,345.0866,-4.6505e-05,-1.028e-05,0.0,0 STARLINK-3606,1 51807U 22017AR  22224.91668981 -.00001028  00000-0 -46505-4 0  9990,2 51807  53.2167  76.4885 0001752  59.3601 345.0866 15.08823862 27132,6917.93,95.439,541.007,538.5830000000002,0.0
51807.0,STARLINK-3606,PAYLOAD,2022-08-13 14:00:01,15.08844096,0.0001688,53.2168,73.482,64.8583,2.6942,-0.0070231,-0.00110366,0.0,0 STARLINK-3606,1 51807U 22017AR  22225.58334491 -.00110366  00000-0 -70231-2 0  9997,2 51807  53.2168  73.4820 0001688  64.8583   2.6942 15.08844096  1301,6917.868,95.437,540.901,538.565,0.0
51807.0,STARLINK-3606,PAYLOAD,2022-08-13 22:00:00,15.08822417,0.0001833,53.2174,71.9814,55.284,23.8033,0.0014865,0.00023438,0.0,0 STARLINK-3606,1 51807U 22017AR  22225.91667824  .00023438  00000-0  14865-2 0  9995,2 51807  53.2174  71.9814 0001833  55.2840  23.8033 15.08822417  1305,6917.934,95.439,541.067,538.531,0.0
51807.0,STARLINK-3606,PAYLOAD,2022-08-14 04:00:00,15.08838951,0.0001804,53.2172,70.8565,53.3615,304.4145,-0.00028319,-4.792e-05,0.0,0 STARLINK-3606,1 51807U 22017AR  22226.16667824 -.00004792  00000-0 -28319-3 0  9997,2 51807  53.2172  70.8565 0001804  53.3615 304.4145 15.08838951 27312,6917.884,95.438,540.997,538.501,0.0
51807.0,STARLINK-3606,PAYLOAD,2022-08-14 12:00:00,15.08807158,0.0001587,53.2168,69.3781,62.9923,306.4257,0.0030175,0.0004801999999999,0.0,0 STARLINK-3606,1 51807U 22017AR  22226.50001157  .00048020  00000-0  30175-2 0  9998,2 51807  53.2168  69.3781 0001587  62.9923 306.4257 15.08807158 27373,6917.981,95.44,540.944,538.748,0.0
51807.0,STARLINK-3606,PAYLOAD,2022-08-14 14:00:01,15.088287300000005,0.0001623,53.217,69.0041,63.4556,38.8486,0.0010714,0.00016799,0.0,0 STARLINK-3606,1 51807U 22017AR  22226.58334491  .00016799  00000-0  10714-2 0  9991,2 51807  53.2170  69.0041 0001623  63.4556  38.8486 15.08828730  1305,6917.915,95.438,540.903,538.6569999999998,0.0
51807.0,STARLINK-3606,PAYLOAD,2022-08-14 22:00:00,15.08822784,0.0001766,53.2172,67.5095,56.315,57.5781,0.0012288,0.00019313,0.0,0 STARLINK-3606,1 51807U 22017AR  22226.91667824  .00019313  00000-0  12288-2 0  9990,2 51807  53.2172  67.5095 0001766  56.3150  57.5781 15.08822784  1307,6917.933000000001,95.439,541.02,538.576,0.0
51807.0,STARLINK-3606,PAYLOAD,2022-08-15 04:00:00,15.08853707,0.0001704,53.2171,66.3864,55.117,337.4583,-0.0014859,-0.00023867,0.0,0 STARLINK-3606,1 51807U 22017AR  22227.16667824 -.00023867  00000-0 -14859-2 0  9995,2 51807  53.2171  66.3864 0001704  55.1170 337.4583 15.08853707 27473,6917.8380000000025,95.437,540.882,538.525,0.0
51807.0,STARLINK-3606,PAYLOAD,2022-08-15 14:00:01,15.0884737,0.0001608,53.2178,64.5148,62.1585,74.9152,-0.0016863,-0.00027031,0.0,0 STARLINK-3606,1 51807U 22017AR  22227.58334491 -.00027031  00000-0 -16863-2 0  9996,2 51807  53.2178  64.5148 0001608  62.1585  74.9152 15.08847370  1304,6917.858,95.437,540.835,538.61,0.0
51807.0,STARLINK-3606,PAYLOAD,2022-08-15 22:00:00,15.08810479,0.0001712,53.2179,63.0202,53.8512,94.8184,0.0017312,0.00027349,0.0,0 STARLINK-3606,1 51807U 22017AR  22227.91667824  .00027349  00000-0  17312-2 0  9992,2 51807  53.2179  63.0202 0001712  53.8512  94.8184 15.08810479  1309,6917.971,95.439,541.02,538.651,0.0
51807.0,STARLINK-3606,PAYLOAD,2022-08-16 04:00:01,15.08845445,0.0001652,53.2178,61.8971,54.2436,13.1623,-0.0016187,-0.00025961,0.0,0 STARLINK-3606,1 51807U 22017AR  22228.16668981 -.00025961  00000-0 -16187-2 0  9994,2 51807  53.2178  61.8971 0001652  54.2436  13.1623 15.08845445 27626,6917.864000000001,95.437,540.872,538.586,0.0
51807.0,STARLINK-3606,PAYLOAD,2022-08-16 14:00:01,15.08844875,0.0001591,53.2185,60.0259,61.8629,109.9636,0.00018977,2.734e-05,0.0,0 STARLINK-3606,1 51807U 22017AR  22228.58334491  .00002734  00000-0  18977-3 0  9997,2 51807  53.2185  60.0259 0001591  61.8629 109.9636 15.08844875  1305,6917.865,95.437,540.831,538.63,0.0
51807.0,STARLINK-3606,PAYLOAD,2022-08-16 22:00:00,15.088318300000005,0.0001754999999999,53.2185,58.5312,54.4006,129.032,0.0014134,0.00022273,0.0,0 STARLINK-3606,1 51807U 22017AR  22228.91667824  .00022273  00000-0  14134-2 0  9993,2 51807  53.2185  58.5312 0001755  54.4006 129.0320 15.08831830 27731,6917.905,95.438,540.984,538.556,0.0
51807.0,STARLINK-3606,PAYLOAD,2022-08-17 14:00:01,15.08835101,0.0001479,53.2184,55.5329,60.7266,145.8871,-0.00024008,-4.106e-05,0.0,0 STARLINK-3606,1 51807U 22017AR  22229.58334491 -.00004106  00000-0 -24008-3 0  9997,2 51807  53.2184  55.5329 0001479  60.7266 145.8871 15.08835101 27839,6917.895,95.438,540.784,538.737,0.0
51807.0,STARLINK-3606,PAYLOAD,2022-08-17 16:00:00,15.088432,0.0001484,53.2187,55.1635,57.3483,242.158,-0.001284,-0.00020666,0.0,0 STARLINK-3606,1 51807U 22017AR  22229.66667824 -.00020666  00000-0 -12840-2 0  9994,2 51807  53.2187  55.1635 0001484  57.3483 242.1580 15.08843200  1308,6917.871,95.437,540.762,538.7090000000002,0.0
51807.0,STARLINK-3606,PAYLOAD,2022-08-18 14:00:01,15.08863808,0.0001440999999999,53.2187,51.0485,60.6821,180.7031,-0.00021215,-3.665e-05,0.0,0 STARLINK-3606,1 51807U 22017AR  22230.58334491 -.00003665  00000-0 -21215-3 0  9995,2 51807  53.2187  51.0485 0001441  60.6821 180.7031 15.08863808  1306,6917.808000000001,95.436,540.669,538.6759999999998,0.0
51807.0,STARLINK-3606,PAYLOAD,2022-08-18 22:00:00,15.08850524,0.0001610999999999,53.2185,49.5537,53.0879,199.9181,0.00015499,2.18e-05,0.0,0 STARLINK-3606,1 51807U 22017AR  22230.91667824  .00002180  00000-0  15499-3 0  9997,2 51807  53.2185  49.5537 0001611  53.0879 199.9181 15.08850524 28030,6917.848000000001,95.437,540.828,538.599,0.0
51807.0,STARLINK-3606,PAYLOAD,2022-08-19 12:00:00,15.08828176,0.0001455,53.2184,46.9334,63.6231,119.6874,-1.6524e-05,-5.51e-06,0.0,0 STARLINK-3606,1 51807U 22017AR  22231.50001157 -.00000551  00000-0 -16524-4 0  9997,2 51807  53.2184  46.9334 0001455  63.6231 119.6874 15.08828176 28126,6917.917,95.438,540.788,538.775,0.0
51807.0,STARLINK-3606,PAYLOAD,2022-08-19 14:00:01,15.08836629,0.0001443999999999,53.2183,46.5598,61.2642,214.9385,-0.0011877,-0.00019139,0.0,0 STARLINK-3606,1 51807U 22017AR  22231.58334491 -.00019139  00000-0 -11877-2 0  9991,2 51807  53.2183  46.5598 0001444  61.2642 214.9385 15.08836629  1300,6917.891,95.438,540.755,538.757,0.0
51807.0,STARLINK-3606,PAYLOAD,2022-08-19 22:00:00,15.08800844,0.0001582,53.218,45.065,53.0938,234.6927,0.003026,0.00048148,0.0,0 STARLINK-3606,1 51807U 22017AR  22231.91667824  .00048148  00000-0  30260-2 0  9994,2 51807  53.2180  45.0650 0001582  53.0938 234.6927 15.08800844  1301,6918.0,95.44,540.96,538.771,0.0
51807.0,STARLINK-3606,PAYLOAD,2022-08-20 14:00:01,15.08849746,0.0001488,53.2179,42.07100000000001,60.8409,250.09,-0.0010214,-0.00016511,0.0,0 STARLINK-3606,1 51807U 22017AR  22232.58334491 -.00016511  00000-0 -10214-2 0  9997,2 51807  53.2179  42.0710 0001488  60.8409 250.0900 15.08849746 28280,6917.851,95.437,540.745,538.686,0.0
51807.0,STARLINK-3606,PAYLOAD,2022-08-20 22:00:00,15.08818171,0.0001612,53.2178,40.5761,53.0095,269.5229,0.0030703,0.00048886,0.0,0 STARLINK-3606,1 51807U 22017AR  22232.91667824  .00048886  00000-0  30703-2 0  9996,2 51807  53.2178  40.5761 0001612  53.0095 269.5229 15.08818171  1303,6917.946999999999,95.439,540.927,538.697,0.0
51807.0,STARLINK-3606,PAYLOAD,2022-08-21 14:00:01,15.08844877,0.0001651,53.2179,37.5821,61.6875,284.0261,-0.0019076,-0.00030523,0.0,0 STARLINK-3606,1 51807U 22017AR  22233.58334491 -.00030523  00000-0 -19076-2 0  9992,2 51807  53.2179  37.5821 0001651  61.6875 284.0261 15.08844877 28434,6917.865,95.437,540.873,538.5880000000002,0.0
